SARSAT 7 (NOAA 15)      
1 25338U 98030A   19136.22583193  .00000073  00000-0  49284-4 0  9995
2 25338  98.7492 157.5482 0010007 346.8565  13.2352 14.25907547 92482
METEOSAT-8 (MSG-1)      
1 27509U 02040B   19135.86745622  .00000126  00000-0  00000+0 0  9996
2 27509   6.0365  55.7082 0002488 355.4502 175.7484  1.00272133 61280
GPS BIIR-08             
1 27663U 03005A   19135.48338826 -.00000051  00000-0  00000+0 0  9999
2 27663  56.3420 317.6447 0106912  31.9067 327.2464  2.00575676119369
GPS BIIR-11             
1 28190U 04009A   19135.76785586 -.00000091  00000-0  00000-0 0  9995
2 28190  56.2621  18.4134 0093623  79.9660 278.3847  2.00568514111042
GPS BIIR-12             
1 28361U 04023A   19136.46089639  .00000054  00000-0  00000+0 0  9992
2 28361  54.0481 191.5691 0133824 231.0860 181.2849  2.00573325109142
GPS BIIR-13             
1 28474U 04045A   19136.14041736 -.00000071  00000-0  00000+0 0  9992
2 28474  54.6971  69.0838 0191433 260.3487 282.0288  2.00559461106508
SARSAT 10 (NOAA 18)     
1 28654U 05018A   19136.34167719  .00000100  00000-0  79380-4 0  9999
2 28654  99.0990 182.8056 0013161 271.0917  88.8746 14.12423485720804
GPS BIIR-14M            
1 28874U 05038A   19135.99682707 -.00000089  00000-0  00000+0 0  9999
2 28874  56.3866  15.7530 0130664 262.1375 281.9811  2.00556120 99898
METEOSAT-9 (MSG-2)      
1 28912U 05049B   19136.21875519  .00000005  00000-0  00000+0 0  9992
2 28912   3.5991  71.2995 0002182 335.2235 269.2100  1.00268144 49111
GOES 13                 
1 29155U 06018A   19136.41880367 -.00000297  00000-0  00000+0 0  9992
2 29155   0.2751 284.2947 0012499 138.0246 262.5420  1.00275596 47551
SARSAT 11 (METOP-A)     
1 29499U 06044A   19135.96624949  .00000006  00000-0  22327-4 0  9991
2 29499  98.5773 190.1107 0000886  49.9408   5.6472 14.21548959652093
GPS BIIR-16M            
1 29601U 06052A   19134.79915789 -.00000044  00000-0  00000+0 0  9992
2 29601  56.3224 316.5881 0074437  61.0023 299.7480  2.00566958 91506
GPS BIIR-17M            
1 32260U 07047A   19135.11028019  .00000050  00000-0  00000-0 0  9997
2 32260  53.1713 187.3430 0111363  43.4827 317.4691  2.00561637 84917
GPS BIIR-18M            
1 32384U 07062A   19136.23561135 -.00000090  00000-0  00000+0 0  9990
2 32384  56.4702  16.3809 0008206  97.0844 131.6612  2.00554519 83643
SARSAT 12 (NOAA 19)     
1 33591U 09005A   19136.46391599  .00000089  00000-0  73418-4 0  9995
2 33591  99.1789 126.7860 0014962 110.2529 250.0251 14.12351201529223
GOES 14                 
1 35491U 09033A   19136.38080623 -.00000106  00000-0  00000+0 0  9994
2 35491   0.2118 103.5829 0006488 124.5033  38.3752  1.00270656 36192
GOES 15                 
1 36411U 10008A   19136.41156565  .00000043  00000-0  00000+0 0  9993
2 36411   0.1434 100.8703 0001869 339.8230 172.9202  1.00268221 33708
GLONASS-K 1             
1 37372U 11009A   19135.89510207 -.00000078  00000-0  00000+0 0  9999
2 37372  65.7260  41.1205 0008081 239.5064 345.2873  2.13107507 63916
GPS BIIF-2              
1 37753U 11036A   19135.46308243 -.00000058  00000-0  00000+0 0  9998
2 37753  55.8941  73.0352 0086598  39.0232 138.0788  2.00566025 57322
GSAT0101 (GALILEO-PFM)  
1 37846U 11060A   19135.66193667 -.00000087  00000-0  00000-0 0  9995
2 37846  56.3566  52.2847 0004661 346.9523  13.0243  1.70475614 46972
GSAT0102 (GALILEO-FM2)  
1 37847U 11060B   19135.20298309 -.00000085  00000-0  00000+0 0  9992
2 37847  56.3573  52.2966 0005612 325.8432 158.4887  1.70475596 47096
LUCH 5A                 
1 37951U 11074B   19136.24531531 -.00000055  00000-0  00000+0 0  9992
2 37951   2.4182 129.8124 0004552 260.7346  97.9794  1.00293019 27228
METEOSAT-10 (MSG-3)     
1 38552U 12035B   19136.29177163  .00000048  00000-0  00000+0 0  9991
2 38552   1.0132  19.4945 0000755  61.0267 267.4870  1.00275593 25253
SARSAT 13 (METOP-B)     
1 38771U 12049A   19135.96200293  .00000004  00000-0  21930-4 0  9995
2 38771  98.7059 195.7566 0002110  79.5823  47.8946 14.21488096345411
GPS BIIF-3              
1 38833U 12053A   19136.20194757 -.00000046  00000-0  00000+0 0  9991
2 38833  53.7866 249.7518 0081674  33.4519 327.0522  2.00558036 48405
GSAT0103 (GALILEO-FM3)  
1 38857U 12055A   19135.11749481  .00000065  00000-0  00000-0 0  9999
2 38857  54.9269 172.7808 0005113 263.8843  96.1394  1.70473712 41004
GSAT0104 (GALILEO-FM4)  
1 38858U 12055B   19135.05175787  .00000065  00000-0  00000-0 0  9995
2 38858  54.9289 172.7817 0003993 268.7548  91.2812  1.70473674 41005
GPS BIIF-4              
1 39166U 13023A   19134.06746665 -.00000085  00000-0  00000+0 0  9995
2 39166  56.0696  12.6149 0069812  26.0441 334.3476  2.00567659 43901
INSAT-3D                
1 39216U 13038B   19136.44984302 -.00000170  00000-0  00000+0 0  9998
2 39216   0.0171 282.6170 0001579 144.5163  50.7643  1.00273364 21345
GPS BIIF-5              
1 39533U 14008A   19136.05558553 -.00000051  00000-0  00000+0 0  9998
2 39533  53.9189 255.1492 0040509 192.7796 167.1025  2.00572803 38300
LUCH 5V                 
1 39727U 14023A   19135.87809900 -.00000284  00000-0  00000+0 0  9992
2 39727   1.2859 303.3651 0003728 124.2886 216.5258  1.00271611536559
GPS BIIF-6              
1 39741U 14026A   19135.34458342 -.00000058  00000-0  00000-0 0  9993
2 39741  55.8740  72.5655 0017772 294.2319  65.5559  2.00574531 36594
GPS BIIF-7              
1 40105U 14045A   19135.43583500  .00000047  00000-0  00000+0 0  9991
2 40105  54.5745 191.8971 0010162 103.1802 257.0108  2.00562651 35023
GSAT0201 (GALILEO 5)    
1 40128U 14050A   19134.99748664 -.00000110  00000-0  00000+0 0  9998
2 40128  50.5629  17.3205 1665265  86.4415 292.3786  1.85518517 32206
GSAT0202 (GALILEO 6)    
1 40129U 14050B   19135.80171573 -.00000113  00000-0  00000+0 0  9992
2 40129  50.6071  16.3104 1664534  87.3308 291.5360  1.85519188 32412
GPS BIIF-8              
1 40294U 14068A   19136.29809140  .00000064  00000-0  00000+0 0  9990
2 40294  55.1721 132.7205 0020388  27.9226 332.2002  2.00549820 33267
GLONASS-K 2             
1 40315U 14075A   19135.54338619 -.00000038  00000-0  00000-0 0  9990
2 40315  64.0586 280.8406 0015294 203.2259 216.6291  2.13098628 34672
GPS BIIF-9              
1 40534U 15013A   19134.94579761 -.00000050  00000-0  00000+0 0  9997
2 40534  54.5308 311.2825 0037048   6.3857 353.6578  2.00571676 30303
GSAT0203 (GALILEO 7)    
1 40544U 15017A   19135.44146416 -.00000086  00000-0  00000+0 0  9994
2 40544  56.1481  52.4806 0003281 282.0633  77.8882  1.70474602 25713
GSAT0204 (GALILEO 8)    
1 40545U 15017B   19135.81007775 -.00000088  00000-0  00000-0 0  9993
2 40545  56.1547  52.4845 0000753 289.7965  70.1837  1.70474935 25729
GPS BIIF-10             
1 40730U 15033A   19135.10463621 -.00000087  00000-0  00000+0 0  9993
2 40730  55.5949  11.9289 0044722 343.5347  16.3641  2.00556331 28063
METEOSAT-11 (MSG-4)     
1 40732U 15034A   19136.28993966 -.00000011  00000-0  00000+0 0  9993
2 40732   0.8500 214.7854 0000673 192.2048 291.3451  1.00280016 14079
GSAT0205 (GALILEO 9)    
1 40889U 15045A   19135.46705683 -.00000049  00000-0  00000+0 0  9995
2 40889  56.4735 293.0655 0003472  39.9774 320.0108  1.70475127 22862
GSAT0206 (GALILEO 10)   
1 40890U 15045B   19135.68674011 -.00000050  00000-0  00000+0 0  9993
2 40890  56.4712 293.0559 0001879  56.6920 303.2874  1.70475255 22898
GPS BIIF-11             
1 41019U 15062A   19136.15042765  .00000065  00000-0  00000+0 0  9999
2 41019  55.1734 132.5409 0046483 208.2540 151.5073  2.00564635 25901
ELEKTRO-L 2             
1 41105U 15074A   19136.16152846 -.00000110  00000-0  00000+0 0  9993
2 41105   0.2757 111.4337 0002612 308.8697 307.4532  1.00271896 12568
GSAT0209 (GALILEO 12)   
1 41174U 15079A   19135.27143848  .00000066  00000-0  00000+0 0  9996
2 41174  54.9397 172.4709 0006230 296.6890  63.3295  1.70473696 21203
GSAT0208 (GALILEO 11)   
1 41175U 15079B   19134.31808668  .00000063  00000-0  00000+0 0  9996
2 41175  54.9403 172.4972 0005371 295.6369  64.3867  1.70473786 21193
GPS BIIF-12             
1 41328U 16007A   19136.24622853  .00000053  00000-0  00000+0 0  9991
2 41328  54.8187 192.2455 0031797 219.7177 140.1297  2.00573335 23964
GSAT0211 (GALILEO 14)   
1 41549U 16030A   19135.61358624 -.00000049  00000-0  00000+0 0  9990
2 41549  56.6125 292.8735 0001226 333.8792  26.0763  1.70474866 18503
GSAT0210 (GALILEO 13)   
1 41550U 16030B   19134.73352368 -.00000042  00000-0  00000-0 0  9997
2 41550  56.6130 292.8994 0001010 224.9593 134.9991  1.70474943 18506
INSAT-3DR               
1 41752U 16054A   19136.44827278 -.00000090  00000-0  00000+0 0  9996
2 41752   0.1103  97.0732 0010504 183.8711 188.2792  1.00272082  9843
GSAT0207 (GALILEO 15)   
1 41859U 16069A   19134.97804454  .00000064  00000-0  00000-0 0  9998
2 41859  54.6000 172.9416 0006109 286.7150  73.2995  1.70473645 15401
GSAT0212 (GALILEO 16)   
1 41860U 16069B   19134.24489523  .00000062  00000-0  00000+0 0  9993
2 41860  54.5976 172.9617 0004939 300.3939  59.6363  1.70473638 15481
GSAT0213 (GALILEO 17)   
1 41861U 16069C   19135.19759846  .00000065  00000-0  00000+0 0  9990
2 41861  54.6002 172.9385 0005296 270.2960  89.7256  1.70473730 15502
GSAT0214 (GALILEO 18)   
1 41862U 16069D   19135.93106393  .00000066  00000-0  00000+0 0  9997
2 41862  54.5986 172.9141 0004532 274.1765  85.8558  1.70473706 15506
GOES 16                 
1 41866U 16071A   19136.39587793 -.00000262  00000-0  00000+0 0  9991
2 41866   0.0033  42.9996 0000783  37.4694 220.6699  1.00273648  9153
GSAT-17                 
1 42815U 17040B   19135.95940340 -.00000272  00000-0  00000-0 0  9997
2 42815   0.0456 268.4232 0003380  14.3022  29.5124  1.00271970  6859
GSAT0215 (GALILEO 19)   
1 43055U 17079A   19135.83248024 -.00000051  00000-0  00000+0 0  9997
2 43055  56.5879 292.7178 0001035 185.7182 174.2410  1.70474118  8848
GSAT0216 (GALILEO 20)   
1 43056U 17079B   19135.53893245 -.00000049  00000-0  00000+0 0  9993
2 43056  56.5882 292.7254 0002305 243.5621 116.3762  1.70474241  8822
GSAT0217 (GALILEO 21)   
1 43057U 17079C   19135.75892602 -.00000050  00000-0  00000+0 0  9996
2 43057  56.5864 292.7207 0001586 262.5530  97.3896  1.70474163  8842
GSAT0218 (GALILEO 22)   
1 43058U 17079D   19134.80571063 -.00000043  00000-0  00000-0 0  9990
2 43058  56.5873 292.7439 0002797 241.9373 118.0005  1.70474174  8857
GOES 17                 
1 43226U 18022A   19136.53408954  .00000084  00000-0  00000+0 0  9999
2 43226   0.0026  70.0217 0002579 340.2979 238.7070  1.00273025  4473
GSAT0221 (GALILEO 25)   
1 43564U 18060A   19134.70828376 -.00000083  00000-0  00000+0 0  9997
2 43564  56.5390  52.0229 0004605 293.6461  66.2953  1.70475483  5014
GSAT0222 (GALILEO 26)   
1 43565U 18060B   19134.92819319 -.00000084  00000-0  00000-0 0  9991
2 43565  56.5414  52.0156 0004663 302.3728  57.5716  1.70475520  5055
GSAT0219 (GALILEO 23)   
1 43566U 18060C   19133.97496382 -.00000079  00000-0  00000+0 0  9990
2 43566  56.5411  52.0434 0004216 299.6054  60.3436  1.70475369  5014
GSAT0220 (GALILEO 24)   
1 43567U 18060D   19135.95457888 -.00000088  00000-0  00000+0 0  9999
2 43567  56.5422  51.9889 0004297 299.8883  60.0586  1.70475349  5022
